[{"OBJECT_NAME":"RISAT-2B","OBJECT_ID":"2019-028A","EPOCH":"2026-03-09T20:41:11.920992","MEAN_MOTION":15.01650685,"ECCENTRICITY":0.00079997,"INCLINATION":36.9961,"RA_OF_ASC_NODE":222.9871,"ARG_OF_PERICENTER":294.4328,"MEAN_ANOMALY":65.558,"EPHEMERIS_TYPE":0,"CLASSIFICATION_TYPE":"U","NORAD_CAT_ID":44233,"ELEMENT_SET_NO":999,"REV_AT_EPOCH":37289,"BSTAR":0.00037049954,"MEAN_MOTION_DOT":4.829e-5,"MEAN_MOTION_DDOT":0},{"OBJECT_NAME":"PSLV DEB","OBJECT_ID":"2001-049QE","EPOCH":"2026-03-03T09:16:25.774752","MEAN_MOTION":14.97819767,"ECCENTRICITY":0.00185863,"INCLINATION":98.8591,"RA_OF_ASC_NODE":276.9323,"ARG_OF_PERICENTER":25.6411,"MEAN_ANOMALY":334.5725,"EPHEMERIS_TYPE":0,"CLASSIFICATION_TYPE":"U","NORAD_CAT_ID":35346,"ELEMENT_SET_NO":999,"REV_AT_EPOCH":24399,"BSTAR":0.0023148999,"MEAN_MOTION_DOT":0.00027324,"MEAN_MOTION_DDOT":0}]
